CZ-2C R/B               
1 54039U 22132E   26032.96878456  .00036851  00000+0  47503-3 0  9991
2 54039  97.2945  35.2929 0017229 215.9715 144.0383 15.58751807184801
GSLV R/B                
1 54149U 22138AN  26032.88282629  .00003434  00000+0  29897-3 0  9998
2 54149  87.3856 178.3447 0019387 283.3558  76.5511 14.96491817178571
XRISM                   
1 57800U 23137A   26032.71091994  .00005997  00000+0  34423-3 0  9997
2 57800  31.0015 156.2886 0008022  38.5404 321.5806 15.11031104132349
ACS3                    
1 59588U 24077B   26033.26834105  .00015587  00000+0  12958-1 0  9999
2 59588  97.2264 342.3422 0045678 190.3063 169.7168 13.88108782 89280
SZ-21 MODULE            
1 66515U 25246C   26033.13213922  .00030045  00000+0  28940-3 0  9996
2 66515  41.4757  61.7935 0003340 266.9027  93.1432 15.65854708 12493
