CCSDS_OMM_VERS = 2.0
CREATION_DATE  = 
ORIGINATOR     = 

OBJECT_NAME    = CZ-2C R/B
OBJECT_ID      = 2022-132E
CENTER_NAME    = EARTH
REF_FRAME      = TEME
TIME_SYSTEM    = UTC
MEAN_ELEMENT_THEORY = SGP/SGP4

EPOCH          = 2026-02-01T23:15:02.985984
MEAN_MOTION    = 15.58751807
ECCENTRICITY   = .00172293
INCLINATION    = 97.2945
RA_OF_ASC_NODE = 35.2929
ARG_OF_PERICENTER = 215.9715
MEAN_ANOMALY   = 144.0383

EPHEMERIS_TYPE = 0
CLASSIFICATION_TYPE = U
NORAD_CAT_ID   = 54039
ELEMENT_SET_NO = 999
REV_AT_EPOCH   = 18480
BSTAR          = .47503058E-3
MEAN_MOTION_DOT = .36851E-3
MEAN_MOTION_DDOT = 0

CCSDS_OMM_VERS = 2.0
CREATION_DATE  = 
ORIGINATOR     = 

OBJECT_NAME    = GSLV R/B
OBJECT_ID      = 2022-138AN
CENTER_NAME    = EARTH
REF_FRAME      = TEME
TIME_SYSTEM    = UTC
MEAN_ELEMENT_THEORY = SGP/SGP4

EPOCH          = 2026-02-01T21:11:16.191456
MEAN_MOTION    = 14.96491817
ECCENTRICITY   = .00193872
INCLINATION    = 87.3856
RA_OF_ASC_NODE = 178.3447
ARG_OF_PERICENTER = 283.3558
MEAN_ANOMALY   = 76.5511

EPHEMERIS_TYPE = 0
CLASSIFICATION_TYPE = U
NORAD_CAT_ID   = 54149
ELEMENT_SET_NO = 999
REV_AT_EPOCH   = 17857
BSTAR          = .29896775E-3
MEAN_MOTION_DOT = .3434E-4
MEAN_MOTION_DDOT = 0

CCSDS_OMM_VERS = 2.0
CREATION_DATE  = 
ORIGINATOR     = 

OBJECT_NAME    = XRISM
OBJECT_ID      = 2023-137A
CENTER_NAME    = EARTH
REF_FRAME      = TEME
TIME_SYSTEM    = UTC
MEAN_ELEMENT_THEORY = SGP/SGP4

EPOCH          = 2026-02-01T17:03:43.482816
MEAN_MOTION    = 15.11031104
ECCENTRICITY   = .0008022
INCLINATION    = 31.0015
RA_OF_ASC_NODE = 156.2886
ARG_OF_PERICENTER = 38.5404
MEAN_ANOMALY   = 321.5806

EPHEMERIS_TYPE = 0
CLASSIFICATION_TYPE = U
NORAD_CAT_ID   = 57800
ELEMENT_SET_NO = 999
REV_AT_EPOCH   = 13234
BSTAR          = .34422542E-3
MEAN_MOTION_DOT = .5997E-4
MEAN_MOTION_DDOT = 0

CCSDS_OMM_VERS = 2.0
CREATION_DATE  = 
ORIGINATOR     = 

OBJECT_NAME    = ACS3
OBJECT_ID      = 2024-077B
CENTER_NAME    = EARTH
REF_FRAME      = TEME
TIME_SYSTEM    = UTC
MEAN_ELEMENT_THEORY = SGP/SGP4

EPOCH          = 2026-02-02T06:26:24.666720
MEAN_MOTION    = 13.88108782
ECCENTRICITY   = .00456788
INCLINATION    = 97.2264
RA_OF_ASC_NODE = 342.3422
ARG_OF_PERICENTER = 190.3063
MEAN_ANOMALY   = 169.7168

EPHEMERIS_TYPE = 0
CLASSIFICATION_TYPE = U
NORAD_CAT_ID   = 59588
ELEMENT_SET_NO = 999
REV_AT_EPOCH   = 8928
BSTAR          = .12957866E-1
MEAN_MOTION_DOT = .15587E-3
MEAN_MOTION_DDOT = 0

CCSDS_OMM_VERS = 2.0
CREATION_DATE  = 
ORIGINATOR     = 

OBJECT_NAME    = SZ-21 MODULE
OBJECT_ID      = 2025-246C
CENTER_NAME    = EARTH
REF_FRAME      = TEME
TIME_SYSTEM    = UTC
MEAN_ELEMENT_THEORY = SGP/SGP4

EPOCH          = 2026-02-02T03:10:16.828608
MEAN_MOTION    = 15.65854708
ECCENTRICITY   = .00033406
INCLINATION    = 41.4757
RA_OF_ASC_NODE = 61.7935
ARG_OF_PERICENTER = 266.9027
MEAN_ANOMALY   = 93.1432

EPHEMERIS_TYPE = 0
CLASSIFICATION_TYPE = U
NORAD_CAT_ID   = 66515
ELEMENT_SET_NO = 999
REV_AT_EPOCH   = 1249
BSTAR          = .28940241E-3
MEAN_MOTION_DOT = .30045E-3
MEAN_MOTION_DDOT = 0

